[{"OBJECT_NAME":"FLOCK 4G-29","OBJECT_ID":"2025-009AK","EPOCH":"2026-03-09T19:33:04.927968","MEAN_MOTION":15.27382318,"ECCENTRICITY":0.00013664,"INCLINATION":97.4058,"RA_OF_ASC_NODE":151.3683,"ARG_OF_PERICENTER":288.0502,"MEAN_ANOMALY":72.0588,"EPHEMERIS_TYPE":0,"CLASSIFICATION_TYPE":"U","NORAD_CAT_ID":62642,"ELEMENT_SET_NO":999,"REV_AT_EPOCH":6372,"BSTAR":0.0004183135,"MEAN_MOTION_DOT":0.00011147,"MEAN_MOTION_DDOT":0},{"OBJECT_NAME":"STARLINK-35343","OBJECT_ID":"2026-003A","EPOCH":"2026-03-09T11:53:22.093440","MEAN_MOTION":15.27593914,"ECCENTRICITY":0.00016716,"INCLINATION":43.0002,"RA_OF_ASC_NODE":228.2092,"ARG_OF_PERICENTER":271.3939,"MEAN_ANOMALY":88.6721,"EPHEMERIS_TYPE":0,"CLASSIFICATION_TYPE":"U","NORAD_CAT_ID":67334,"ELEMENT_SET_NO":999,"REV_AT_EPOCH":879,"BSTAR":0.0012290218,"MEAN_MOTION_DOT":0.00033727,"MEAN_MOTION_DDOT":0}]
